[{"OBJECT_NAME":"ONEWEB-0654","OBJECT_ID":"2023-029W","EPOCH":"2025-10-12T05:35:51.514368","MEAN_MOTION":13.14502119,"ECCENTRICITY":0.00018653,"INCLINATION":87.9052,"RA_OF_ASC_NODE":339.1035,"ARG_OF_PERICENTER":86.9958,"MEAN_ANOMALY":273.1385,"EPHEMERIS_TYPE":0,"CLASSIFICATION_TYPE":"U","NORAD_CAT_ID":55816,"ELEMENT_SET_NO":999,"REV_AT_EPOCH":12684,"BSTAR":0.00025555002,"MEAN_MOTION_DOT":1.08e-6,"MEAN_MOTION_DDOT":0},{"OBJECT_NAME":"ONEWEB-0656","OBJECT_ID":"2023-029X","EPOCH":"2025-10-12T04:13:57.843552","MEAN_MOTION":13.20771501,"ECCENTRICITY":0.00019679,"INCLINATION":87.9235,"RA_OF_ASC_NODE":323.8849,"ARG_OF_PERICENTER":82.3184,"MEAN_ANOMALY":277.8173,"EPHEMERIS_TYPE":0,"CLASSIFICATION_TYPE":"U","NORAD_CAT_ID":55817,"ELEMENT_SET_NO":999,"REV_AT_EPOCH":12841,"BSTAR":-0.00016459759,"MEAN_MOTION_DOT":-5.4e-7,"MEAN_MOTION_DDOT":0},{"OBJECT_NAME":"ONEWEB-0657","OBJECT_ID":"2023-029Y","EPOCH":"2025-10-12T05:28:09.388416","MEAN_MOTION":13.19726813,"ECCENTRICITY":0.00026079,"INCLINATION":87.9261,"RA_OF_ASC_NODE":354.315,"ARG_OF_PERICENTER":91.2242,"MEAN_ANOMALY":268.919,"EPHEMERIS_TYPE":0,"CLASSIFICATION_TYPE":"U","NORAD_CAT_ID":55818,"ELEMENT_SET_NO":999,"REV_AT_EPOCH":12620,"BSTAR":7.3704092e-5,"MEAN_MOTION_DOT":4.2e-7,"MEAN_MOTION_DDOT":0},{"OBJECT_NAME":"ONEWEB-0658","OBJECT_ID":"2023-029Z","EPOCH":"2025-10-12T05:21:19.397088","MEAN_MOTION":13.19724625,"ECCENTRICITY":0.00021006,"INCLINATION":87.9279,"RA_OF_ASC_NODE":354.2584,"ARG_OF_PERICENTER":112.5149,"MEAN_ANOMALY":247.6207,"EPHEMERIS_TYPE":0,"CLASSIFICATION_TYPE":"U","NORAD_CAT_ID":55819,"ELEMENT_SET_NO":999,"REV_AT_EPOCH":12621,"BSTAR":0.00030195421,"MEAN_MOTION_DOT":1.34e-6,"MEAN_MOTION_DDOT":0},{"OBJECT_NAME":"ONEWEB-0660","OBJECT_ID":"2023-029AA","EPOCH":"2025-10-12T05:03:53.377344","MEAN_MOTION":13.14502813,"ECCENTRICITY":0.00016077,"INCLINATION":87.9057,"RA_OF_ASC_NODE":339.0818,"ARG_OF_PERICENTER":105.0361,"MEAN_ANOMALY":255.0946,"EPHEMERIS_TYPE":0,"CLASSIFICATION_TYPE":"U","NORAD_CAT_ID":55820,"ELEMENT_SET_NO":999,"REV_AT_EPOCH":12682,"BSTAR":0.00043809939,"MEAN_MOTION_DOT":1.75e-6,"MEAN_MOTION_DDOT":0},{"OBJECT_NAME":"ONEWEB-0661","OBJECT_ID":"2023-029AB","EPOCH":"2025-10-12T04:04:30.618048","MEAN_MOTION":13.14504118,"ECCENTRICITY":0.00015014,"INCLINATION":87.9051,"RA_OF_ASC_NODE":339.1607,"ARG_OF_PERICENTER":101.8249,"MEAN_ANOMALY":258.3049,"EPHEMERIS_TYPE":0,"CLASSIFICATION_TYPE":"U","NORAD_CAT_ID":55821,"ELEMENT_SET_NO":999,"REV_AT_EPOCH":12680,"BSTAR":-0.00017933052,"MEAN_MOTION_DOT":-5.4e-7,"MEAN_MOTION_DDOT":0},{"OBJECT_NAME":"ONEWEB-0662","OBJECT_ID":"2023-029AC","EPOCH":"2025-10-12T04:54:44.695008","MEAN_MOTION":13.14503894,"ECCENTRICITY":0.00016197,"INCLINATION":87.9048,"RA_OF_ASC_NODE":339.1584,"ARG_OF_PERICENTER":107.5536,"MEAN_ANOMALY":252.577,"EPHEMERIS_TYPE":0,"CLASSIFICATION_TYPE":"U","NORAD_CAT_ID":55822,"ELEMENT_SET_NO":999,"REV_AT_EPOCH":12685,"BSTAR":0.00028467338,"MEAN_MOTION_DOT":1.18e-6,"MEAN_MOTION_DDOT":0},{"OBJECT_NAME":"ONEWEB-0663","OBJECT_ID":"2023-029AD","EPOCH":"2025-10-12T03:37:33.813984","MEAN_MOTION":13.20849158,"ECCENTRICITY":0.00016923,"INCLINATION":87.9241,"RA_OF_ASC_NODE":323.9504,"ARG_OF_PERICENTER":109.445,"MEAN_ANOMALY":250.6866,"EPHEMERIS_TYPE":0,"CLASSIFICATION_TYPE":"U","NORAD_CAT_ID":55823,"ELEMENT_SET_NO":999,"REV_AT_EPOCH":12840,"BSTAR":-0.0001503163,"MEAN_MOTION_DOT":-4.8e-7,"MEAN_MOTION_DDOT":0},{"OBJECT_NAME":"ONEWEB-0664","OBJECT_ID":"2023-029AE","EPOCH":"2025-10-12T03:55:45.398496","MEAN_MOTION":13.207729,"ECCENTRICITY":0.00015484,"INCLINATION":87.9221,"RA_OF_ASC_NODE":323.9637,"ARG_OF_PERICENTER":89.4088,"MEAN_ANOMALY":270.7223,"EPHEMERIS_TYPE":0,"CLASSIFICATION_TYPE":"U","NORAD_CAT_ID":55824,"ELEMENT_SET_NO":999,"REV_AT_EPOCH":12840,"BSTAR":0.00012982522,"MEAN_MOTION_DOT":6.6e-7,"MEAN_MOTION_DDOT":0},{"OBJECT_NAME":"ONEWEB-0665","OBJECT_ID":"2023-029AF","EPOCH":"2025-10-12T03:59:56.429376","MEAN_MOTION":13.14504968,"ECCENTRICITY":0.00016946,"INCLINATION":87.9054,"RA_OF_ASC_NODE":339.1372,"ARG_OF_PERICENTER":107.024,"MEAN_ANOMALY":253.1076,"EPHEMERIS_TYPE":0,"CLASSIFICATION_TYPE":"U","NORAD_CAT_ID":55825,"ELEMENT_SET_NO":999,"REV_AT_EPOCH":12682,"BSTAR":-0.0001008691,"MEAN_MOTION_DOT":-2.5e-7,"MEAN_MOTION_DDOT":0},{"OBJECT_NAME":"ONEWEB-0666","OBJECT_ID":"2023-029AG","EPOCH":"2025-10-12T03:46:39.671040","MEAN_MOTION":13.20770774,"ECCENTRICITY":0.00025464,"INCLINATION":87.9221,"RA_OF_ASC_NODE":323.9527,"ARG_OF_PERICENTER":86.1712,"MEAN_ANOMALY":273.9713,"EPHEMERIS_TYPE":0,"CLASSIFICATION_TYPE":"U","NORAD_CAT_ID":55826,"ELEMENT_SET_NO":999,"REV_AT_EPOCH":12841,"BSTAR":-0.00043110823,"MEAN_MOTION_DOT":-1.62e-6,"MEAN_MOTION_DDOT":0},{"OBJECT_NAME":"ONEWEB-0667","OBJECT_ID":"2023-029AH","EPOCH":"2025-10-12T03:37:41.682432","MEAN_MOTION":13.20690814,"ECCENTRICITY":0.00022331,"INCLINATION":87.9251,"RA_OF_ASC_NODE":323.8855,"ARG_OF_PERICENTER":102.3612,"MEAN_ANOMALY":257.7771,"EPHEMERIS_TYPE":0,"CLASSIFICATION_TYPE":"U","NORAD_CAT_ID":55827,"ELEMENT_SET_NO":999,"REV_AT_EPOCH":12840,"BSTAR":-0.029668397,"MEAN_MOTION_DOT":-0.0001202,"MEAN_MOTION_DDOT":0},{"OBJECT_NAME":"ONEWEB-0669","OBJECT_ID":"2023-029AJ","EPOCH":"2025-10-12T03:30:47.257056","MEAN_MOTION":13.20772283,"ECCENTRICITY":0.00018413,"INCLINATION":87.9221,"RA_OF_ASC_NODE":323.9229,"ARG_OF_PERICENTER":74.1076,"MEAN_ANOMALY":286.0261,"EPHEMERIS_TYPE":0,"CLASSIFICATION_TYPE":"U","NORAD_CAT_ID":55828,"ELEMENT_SET_NO":999,"REV_AT_EPOCH":12840,"BSTAR":8.5197222e-5,"MEAN_MOTION_DOT":4.8e-7,"MEAN_MOTION_DDOT":0},{"OBJECT_NAME":"ONEWEB-0670","OBJECT_ID":"2023-029AK","EPOCH":"2025-10-12T05:17:35.443968","MEAN_MOTION":13.14501852,"ECCENTRICITY":0.00014604,"INCLINATION":87.9055,"RA_OF_ASC_NODE":339.1464,"ARG_OF_PERICENTER":98.1169,"MEAN_ANOMALY":262.0127,"EPHEMERIS_TYPE":0,"CLASSIFICATION_TYPE":"U","NORAD_CAT_ID":55829,"ELEMENT_SET_NO":999,"REV_AT_EPOCH":12685,"BSTAR":0.00040085511,"MEAN_MOTION_DOT":1.61e-6,"MEAN_MOTION_DDOT":0},{"OBJECT_NAME":"ONEWEB-0671","OBJECT_ID":"2023-029AL","EPOCH":"2025-10-12T05:14:29.307264","MEAN_MOTION":13.19724656,"ECCENTRICITY":0.00016916,"INCLINATION":87.9263,"RA_OF_ASC_NODE":354.3099,"ARG_OF_PERICENTER":102.1754,"MEAN_ANOMALY":257.9569,"EPHEMERIS_TYPE":0,"CLASSIFICATION_TYPE":"U","NORAD_CAT_ID":55830,"ELEMENT_SET_NO":999,"REV_AT_EPOCH":12619,"BSTAR":-0.00040604292,"MEAN_MOTION_DOT":-1.5e-6,"MEAN_MOTION_DDOT":0},{"OBJECT_NAME":"ONEWEB-0672","OBJECT_ID":"2023-029AM","EPOCH":"2025-10-12T03:23:57.746976","MEAN_MOTION":13.20771877,"ECCENTRICITY":0.00021009,"INCLINATION":87.9218,"RA_OF_ASC_NODE":323.9052,"ARG_OF_PERICENTER":89.5904,"MEAN_ANOMALY":270.547,"EPHEMERIS_TYPE":0,"CLASSIFICATION_TYPE":"U","NORAD_CAT_ID":55831,"ELEMENT_SET_NO":999,"REV_AT_EPOCH":12840,"BSTAR":2.1991935e-5,"MEAN_MOTION_DOT":2.2e-7,"MEAN_MOTION_DDOT":0}]
