ONEWEB-0654             
1 55816U 23029W   25285.23323512  .00000108  00000+0  25555-3 0  9997
2 55816  87.9052 339.1035 0001865  86.9958 273.1385 13.14502119126844
ONEWEB-0656             
1 55817U 23029X   25285.17636393 -.00000054  00000+0 -16460-3 0  9992
2 55817  87.9235 323.8849 0001967  82.3184 277.8173 13.20771501128416
ONEWEB-0657             
1 55818U 23029Y   25285.22788644  .00000042  00000+0  73704-4 0  9996
2 55818  87.9261 354.3150 0002607  91.2242 268.9190 13.19726813126205
ONEWEB-0658             
1 55819U 23029Z   25285.22314117  .00000134  00000+0  30195-3 0  9995
2 55819  87.9279 354.2584 0002100 112.5149 247.6207 13.19724625126219
ONEWEB-0660             
1 55820U 23029AA  25285.21103446  .00000175  00000+0  43810-3 0  9990
2 55820  87.9057 339.0818 0001607 105.0361 255.0946 13.14502813126828
ONEWEB-0661             
1 55821U 23029AB  25285.16979882 -.00000054  00000+0 -17933-3 0  9995
2 55821  87.9051 339.1607 0001501 101.8249 258.3049 13.14504118126800
ONEWEB-0662             
1 55822U 23029AC  25285.20468397  .00000118  00000+0  28467-3 0  9998
2 55822  87.9048 339.1584 0001619 107.5536 252.5770 13.14503894126855
ONEWEB-0663             
1 55823U 23029AD  25285.15108581 -.00000048  00000+0 -15032-3 0  9997
2 55823  87.9241 323.9504 0001692 109.4450 250.6866 13.20849158128402
ONEWEB-0664             
1 55824U 23029AE  25285.16371989  .00000066  00000+0  12983-3 0  9993
2 55824  87.9221 323.9637 0001548  89.4088 270.7223 13.20772900128402
ONEWEB-0665             
1 55825U 23029AF  25285.16662534 -.00000025  00000+0 -10087-3 0  9993
2 55825  87.9054 339.1372 0001694 107.0240 253.1076 13.14504968126826
ONEWEB-0666             
1 55826U 23029AG  25285.15740360 -.00000162  00000+0 -43111-3 0  9993
2 55826  87.9221 323.9527 0002546  86.1712 273.9713 13.20770774128416
ONEWEB-0667             
1 55827U 23029AH  25285.15117688 -.00012020  00000+0 -29668-1 0  9990
2 55827  87.9251 323.8855 0002233 102.3612 257.7771 13.20690814128405
ONEWEB-0669             
1 55828U 23029AJ  25285.14638029  .00000048  00000+0  85197-4 0  9994
2 55828  87.9221 323.9229 0001841  74.1076 286.0261 13.20772283128403
ONEWEB-0670             
1 55829U 23029AK  25285.22054912  .00000161  00000+0  40086-3 0  9990
2 55829  87.9055 339.1464 0001460  98.1169 262.0127 13.14501852126852
ONEWEB-0671             
1 55830U 23029AL  25285.21839476 -.00000150  00000+0 -40604-3 0  9993
2 55830  87.9263 354.3099 0001691 102.1754 257.9569 13.19724656126194
ONEWEB-0672             
1 55831U 23029AM  25285.14164059  .00000022  00000+0  21992-4 0  9990
2 55831  87.9218 323.9052 0002100  89.5904 270.5470 13.20771877128404
